start=new Date('2022-02-12T00:00:00.000Z').valueOf();
sats=[{"MEAN_ANOMALY":"290.0380","EPOCH":"2022-02-11T10:52:08.647968","ECCENTRICITY":"0.00014170","PERIAPSIS":"546.213","OBJECT_NAME":"STARLINK-1938","NORAD_CAT_ID":"47551","CLASSIFICATION_TYPE":"U","EPHEMERIS_TYPE":"0","RCS_SIZE":"LARGE","LAUNCH_DATE":"2021-02-04","TLE_LINE1":"1 47551U 21009D   22042.45287787  .00002247  00000-0  16967-3 0  9999","OBJECT_TYPE":"PAYLOAD","OBJECT_ID":"2021-009D","FILE":"3297735","APOAPSIS":"548.176","REF_FRAME":"TEME","MEAN_MOTION":"15.06406307","TIME_SYSTEM":"UTC","ARG_OF_PERICENTER":"70.0761","CENTER_NAME":"EARTH","SEMIMAJOR_AXIS":"6925.329","MEAN_MOTION_DOT":"0.00002247","SITE":"AFETR","TLE_LINE2":"2 47551  53.0550 218.0837 0001417  70.0761 290.0380 15.06406307 56639","INCLINATION":"53.0550","MEAN_MOTION_DDOT":"0.0000000000000","ELEMENT_SET_NO":"999","GP_ID":"195753082","MEAN_ELEMENT_THEORY":"SGP4","RA_OF_ASC_NODE":"218.0837","DECAY_DATE":null,"PERIOD":"95.592","REV_AT_EPOCH":"5663","COUNTRY_CODE":"US","BSTAR":"0.00016967000000"},{"MEAN_MOTION_DDOT":"0.0000000000000","INCLINATION":"53.0540","TLE_LINE2":"2 47552  53.0540 206.8755 0001406  74.3457 285.7687 15.06412788 57418","SITE":"AFETR","MEAN_MOTION_DOT":"0.00003148","SEMIMAJOR_AXIS":"6925.309","CENTER_NAME":"EARTH","ARG_OF_PERICENTER":"74.3457","TIME_SYSTEM":"UTC","BSTAR":"0.00023007000000","COUNTRY_CODE":"US","REV_AT_EPOCH":"5741","PERIOD":"95.591","DECAY_DATE":null,"RA_OF_ASC_NODE":"206.8755","MEAN_ELEMENT_THEORY":"SGP4","GP_ID":"195761394","ELEMENT_SET_NO":"999","TLE_LINE1":"1 47552U 21009E   22042.72283792  .00003148  00000-0  23007-3 0  9996","LAUNCH_DATE":"2021-02-04","RCS_SIZE":"LARGE","EPHEMERIS_TYPE":"0","CLASSIFICATION_TYPE":"U","NORAD_CAT_ID":"47552","PERIAPSIS":"546.201","ECCENTRICITY":"0.00014060","OBJECT_NAME":"STARLINK-1940","MEAN_ANOMALY":"285.7687","EPOCH":"2022-02-11T17:20:53.196288","MEAN_MOTION":"15.06412788","REF_FRAME":"TEME","APOAPSIS":"548.148","FILE":"3297961","OBJECT_ID":"2021-009E","OBJECT_TYPE":"PAYLOAD"},{"RA_OF_ASC_NODE":"190.5658","DECAY_DATE":null,"PERIOD":"92.390","MEAN_ELEMENT_THEORY":"SGP4","ELEMENT_SET_NO":"999","GP_ID":"195761395","BSTAR":"0.00624590000000","REV_AT_EPOCH":"5765","COUNTRY_CODE":"US","CENTER_NAME":"EARTH","SEMIMAJOR_AXIS":"6769.812","TIME_SYSTEM":"UTC","ARG_OF_PERICENTER":"39.7318","MEAN_MOTION_DDOT":"0.0000000000000","INCLINATION":"53.0531","TLE_LINE2":"2 47553  53.0531 190.5658 0002718  39.7318 320.3892 15.58611499 57655","MEAN_MOTION_DOT":"0.00520183","SITE":"AFETR","APOAPSIS":"393.517","OBJECT_ID":"2021-009F","OBJECT_TYPE":"PAYLOAD","FILE":"3297961","MEAN_MOTION":"15.58611499","REF_FRAME":"TEME","EPOCH":"2022-02-11T19:05:27.489120","MEAN_ANOMALY":"320.3892","PERIAPSIS":"389.837","OBJECT_NAME":"STARLINK-1951","ECCENTRICITY":"0.00027180","TLE_LINE1":"1 47553U 21009F   22042.79545705  .00520183  00000-0  62459-2 0  9995","LAUNCH_DATE":"2021-02-04","RCS_SIZE":"LARGE","EPHEMERIS_TYPE":"0","NORAD_CAT_ID":"47553","CLASSIFICATION_TYPE":"U"},{"OBJECT_TYPE":"PAYLOAD","OBJECT_ID":"2021-009G","FILE":"3297961","APOAPSIS":"548.145","REF_FRAME":"TEME","MEAN_MOTION":"15.06400012","EPOCH":"2022-02-11T19:04:25.247424","MEAN_ANOMALY":"270.9252","PERIAPSIS":"546.282","ECCENTRICITY":"0.00013450","OBJECT_NAME":"STARLINK-1953","RCS_SIZE":"LARGE","EPHEMERIS_TYPE":"0","NORAD_CAT_ID":"47554","CLASSIFICATION_TYPE":"U","TLE_LINE1":"1 47554U 21009G   22042.79473666  .00000029  00000-0  20864-4 0  9990","LAUNCH_DATE":"2021-02-04","MEAN_ELEMENT_THEORY":"SGP4","ELEMENT_SET_NO":"999","GP_ID":"195761706","RA_OF_ASC_NODE":"226.5551","PERIOD":"95.592","DECAY_DATE":null,"COUNTRY_CODE":"US","REV_AT_EPOCH":"5715","BSTAR":"0.00002086400000","TIME_SYSTEM":"UTC","ARG_OF_PERICENTER":"89.1891","CENTER_NAME":"EARTH","SEMIMAJOR_AXIS":"6925.349","TLE_LINE2":"2 47554  53.0553 226.5551 0001345  89.1891 270.9252 15.06400012 57157","MEAN_MOTION_DOT":"0.00000029","SITE":"AFETR","MEAN_MOTION_DDOT":"0.0000000000000","INCLINATION":"53.0553"},{"MEAN_MOTION":"15.06401907","REF_FRAME":"TEME","APOAPSIS":"548.202","OBJECT_TYPE":"PAYLOAD","OBJECT_ID":"2021-009H","FILE":"3297735","LAUNCH_DATE":"2021-02-04","TLE_LINE1":"1 47555U 21009H   22042.50446040  .00000616  00000-0  60212-4 0  9999","EPHEMERIS_TYPE":"0","RCS_SIZE":"LARGE","NORAD_CAT_ID":"47555","CLASSIFICATION_TYPE":"U","MEAN_ANOMALY":"281.4363","EPOCH":"2022-02-11T12:06:25.378560","PERIAPSIS":"546.213","OBJECT_NAME":"STARLINK-1954","ECCENTRICITY":"0.00014360","BSTAR":"0.00006021200000","REV_AT_EPOCH":"5664","COUNTRY_CODE":"US","RA_OF_ASC_NODE":"217.8522","PERIOD":"95.592","DECAY_DATE":null,"MEAN_ELEMENT_THEORY":"SGP4","ELEMENT_SET_NO":"999","GP_ID":"195753583","MEAN_MOTION_DDOT":"0.0000000000000","INCLINATION":"53.0532","TLE_LINE2":"2 47555  53.0532 217.8522 0001436  78.6787 281.4363 15.06401907 56641","MEAN_MOTION_DOT":"0.00000616","SITE":"AFETR","SEMIMAJOR_AXIS":"6925.343","CENTER_NAME":"EARTH","TIME_SYSTEM":"UTC","ARG_OF_PERICENTER":"78.6787"},{"BSTAR":"0.00016435000000","REV_AT_EPOCH":"5632","COUNTRY_CODE":"US","DECAY_DATE":null,"PERIOD":"95.592","RA_OF_ASC_NODE":"238.8804","MEAN_ELEMENT_THEORY":"SGP4","GP_ID":"195753834","ELEMENT_SET_NO":"999","MEAN_MOTION_DDOT":"0.0000000000000","INCLINATION":"53.0537","TLE_LINE2":"2 47556  53.0537 238.8804 0001846  68.1374 291.9811 15.06401639 56325","SITE":"AFETR","MEAN_MOTION_DOT":"0.00002167","SEMIMAJOR_AXIS":"6925.344","CENTER_NAME":"EARTH","ARG_OF_PERICENTER":"68.1374","TIME_SYSTEM":"UTC","MEAN_MOTION":"15.06401639","REF_FRAME":"TEME","APOAPSIS":"548.487","FILE":"3297735","OBJECT_TYPE":"PAYLOAD","OBJECT_ID":"2021-009J","TLE_LINE1":"1 47556U 21009J   22042.27409671  .00002167  00000-0  16435-3 0  9993","LAUNCH_DATE":"2021-02-04","RCS_SIZE":"LARGE","EPHEMERIS_TYPE":"0","CLASSIFICATION_TYPE":"U","NORAD_CAT_ID":"47556","ECCENTRICITY":"0.00018460","PERIAPSIS":"545.930","OBJECT_NAME":"STARLINK-1955","EPOCH":"2022-02-11T06:34:41.955744","MEAN_ANOMALY":"291.9811"},{"RA_OF_ASC_NODE":"236.3801","PERIOD":"95.592","DECAY_DATE":null,"ELEMENT_SET_NO":"999","GP_ID":"195761389","MEAN_ELEMENT_THEORY":"SGP4","BSTAR":"0.00003372800000","REV_AT_EPOCH":"5701","COUNTRY_CODE":"US","SEMIMAJOR_AXIS":"6925.330","CENTER_NAME":"EARTH","TIME_SYSTEM":"UTC","ARG_OF_PERICENTER":"69.0603","INCLINATION":"53.0522","MEAN_MOTION_DDOT":"0.0000000000000","MEAN_MOTION_DOT":"0.00000221","SITE":"AFETR","TLE_LINE2":"2 47557  53.0522 236.3801 0001855  69.0603 291.0585 15.06406189 57016","APOAPSIS":"548.479","OBJECT_ID":"2021-009K","OBJECT_TYPE":"PAYLOAD","FILE":"3297961","MEAN_MOTION":"15.06406189","REF_FRAME":"TEME","MEAN_ANOMALY":"291.0585","EPOCH":"2022-02-11T20:01:28.544160","OBJECT_NAME":"STARLINK-1956","PERIAPSIS":"545.910","ECCENTRICITY":"0.00018550","TLE_LINE1":"1 47557U 21009K   22042.83435815  .00000221  00000-0  33728-4 0  9999","LAUNCH_DATE":"2021-02-04","NORAD_CAT_ID":"47557","CLASSIFICATION_TYPE":"U","RCS_SIZE":"LARGE","EPHEMERIS_TYPE":"0"},{"TLE_LINE2":"2 47558  53.0559 207.9458 0001810  71.1004 289.0181 15.06415739 56771","SITE":"AFETR","MEAN_MOTION_DOT":"0.00003713","MEAN_MOTION_DDOT":"0.0000000000000","INCLINATION":"53.0559","ARG_OF_PERICENTER":"71.1004","TIME_SYSTEM":"UTC","SEMIMAJOR_AXIS":"6925.300","CENTER_NAME":"EARTH","REV_AT_EPOCH":"5677","COUNTRY_CODE":"US","BSTAR":"0.00026793000000","MEAN_ELEMENT_THEORY":"SGP4","GP_ID":"195752832","ELEMENT_SET_NO":"999","PERIOD":"95.591","DECAY_DATE":null,"RA_OF_ASC_NODE":"207.9458","EPHEMERIS_TYPE":"0","RCS_SIZE":"LARGE","CLASSIFICATION_TYPE":"U","NORAD_CAT_ID":"47558","LAUNCH_DATE":"2021-02-04","TLE_LINE1":"1 47558U 21009L   22042.48327482  .00003713  00000-0  26793-3 0  9993","PERIAPSIS":"545.912","OBJECT_NAME":"STARLINK-1957","ECCENTRICITY":"0.00018100","MEAN_ANOMALY":"289.0181","EPOCH":"2022-02-11T11:35:54.944448","REF_FRAME":"TEME","MEAN_MOTION":"15.06415739","FILE":"3297735","OBJECT_ID":"2021-009L","OBJECT_TYPE":"PAYLOAD","APOAPSIS":"548.419"},{"SITE":"AFETR","MEAN_MOTION_DOT":"0.00000945","TLE_LINE2":"2 47559  53.0540 198.1089 0001643  71.6191 288.4977 15.06410622 56917","INCLINATION":"53.0540","MEAN_MOTION_DDOT":"0.0000000000000","ARG_OF_PERICENTER":"71.6191","TIME_SYSTEM":"UTC","SEMIMAJOR_AXIS":"6925.316","CENTER_NAME":"EARTH","REV_AT_EPOCH":"5691","COUNTRY_CODE":"US","BSTAR":"0.00008228500000","GP_ID":"195753083","ELEMENT_SET_NO":"999","MEAN_ELEMENT_THEORY":"SGP4","DECAY_DATE":null,"PERIOD":"95.591","RA_OF_ASC_NODE":"198.1089","CLASSIFICATION_TYPE":"U","NORAD_CAT_ID":"47559","EPHEMERIS_TYPE":"0","RCS_SIZE":"LARGE","TLE_LINE1":"1 47559U 21009M   22042.44731724  .00000945  00000-0  82285-4 0  9991","LAUNCH_DATE":"2021-02-04","OBJECT_NAME":"STARLINK-1958","PERIAPSIS":"546.043","ECCENTRICITY":"0.00016430","MEAN_ANOMALY":"288.4977","EPOCH":"2022-02-11T10:44:08.209536","REF_FRAME":"TEME","MEAN_MOTION":"15.06410622","FILE":"3297735","OBJECT_TYPE":"PAYLOAD","OBJECT_ID":"2021-009M","APOAPSIS":"548.319"},{"FILE":"3297908","OBJECT_TYPE":"PAYLOAD","OBJECT_ID":"2021-009N","APOAPSIS":"548.208","REF_FRAME":"TEME","MEAN_MOTION":"15.06398134","PERIAPSIS":"546.231","OBJECT_NAME":"STARLINK-1959","ECCENTRICITY":"0.00014270","MEAN_ANOMALY":"289.2912","EPOCH":"2022-02-11T18:31:14.795328","RCS_SIZE":"LARGE","EPHEMERIS_TYPE":"0","CLASSIFICATION_TYPE":"U","NORAD_CAT_ID":"47560","TLE_LINE1":"1 47560U 21009N   22042.77169902 -.00000468  00000-0 -12554-4 0  9996","LAUNCH_DATE":"2021-02-04","MEAN_ELEMENT_THEORY":"SGP4","GP_ID":"195760487","ELEMENT_SET_NO":"999","DECAY_DATE":null,"PERIOD":"95.592","RA_OF_ASC_NODE":"196.6627","REV_AT_EPOCH":"5757","COUNTRY_CODE":"US","BSTAR":"-0.00001255400000","ARG_OF_PERICENTER":"70.8231","TIME_SYSTEM":"UTC","SEMIMAJOR_AXIS":"6925.354","CENTER_NAME":"EARTH","TLE_LINE2":"2 47560  53.0542 196.6627 0001427  70.8231 289.2912 15.06398134 57572","SITE":"AFETR","MEAN_MOTION_DOT":"-0.00000468","MEAN_MOTION_DDOT":"0.0000000000000","INCLINATION":"53.0542"}];
